start=new Date('2022-03-04T00:00:00.000Z').valueOf();
sats=[{"ELEMENT_SET_NO":"999","RA_OF_ASC_NODE":"22.6199","TIME_SYSTEM":"UTC","CENTER_NAME":"EARTH","PERIOD":"95.592","EPOCH":"2022-03-03T14:30:15.748416","NORAD_CAT_ID":"46163","TLE_LINE1":"1 46163U 20057AY  22062.60434894 -.00000032  00000-0  16751-4 0  9994","DECAY_DATE":null,"REF_FRAME":"TEME","LAUNCH_DATE":"2020-08-18","COUNTRY_CODE":"US","MEAN_ANOMALY":"302.7068","APOAPSIS":"548.432","INCLINATION":"53.0548","MEAN_MOTION_DDOT":"0.0000000000000","REV_AT_EPOCH":"8550","MEAN_ELEMENT_THEORY":"SGP4","EPHEMERIS_TYPE":"0","CLASSIFICATION_TYPE":"U","OBJECT_TYPE":"PAYLOAD","RCS_SIZE":"LARGE","MEAN_MOTION":"15.06397151","GP_ID":"197766161","TLE_LINE2":"2 46163  53.0548  22.6199 0001747  57.4089 302.7068 15.06397151 85500","SITE":"AFETR","PERIAPSIS":"546.012","ECCENTRICITY":"0.00017470","MEAN_MOTION_DOT":"-0.00000032","OBJECT_NAME":"STARLINK-1610","BSTAR":"0.00001675100000","FILE":"3343255","OBJECT_ID":"2020-057AY","SEMIMAJOR_AXIS":"6925.357","ARG_OF_PERICENTER":"57.4089"},{"MEAN_MOTION_DDOT":"0.0000000000000","INCLINATION":"53.0545","MEAN_ELEMENT_THEORY":"SGP4","REV_AT_EPOCH":"8680","MEAN_ANOMALY":"290.8683","REF_FRAME":"TEME","TLE_LINE1":"1 46164U 20057AZ  22062.86604983  .00003151  00000-0  23029-3 0  9990","DECAY_DATE":null,"LAUNCH_DATE":"2020-08-18","COUNTRY_CODE":"US","APOAPSIS":"548.374","RCS_SIZE":"LARGE","OBJECT_TYPE":"PAYLOAD","EPHEMERIS_TYPE":"0","CLASSIFICATION_TYPE":"U","TIME_SYSTEM":"UTC","ELEMENT_SET_NO":"999","RA_OF_ASC_NODE":"21.4425","NORAD_CAT_ID":"46164","EPOCH":"2022-03-03T20:47:06.705312","CENTER_NAME":"EARTH","PERIOD":"95.592","OBJECT_ID":"2020-057AZ","SEMIMAJOR_AXIS":"6925.337","ARG_OF_PERICENTER":"69.2487","TLE_LINE2":"2 46164  53.0545  21.4425 0001692  69.2487 290.8683 15.06403783 86802","GP_ID":"197765410","PERIAPSIS":"546.030","SITE":"AFETR","MEAN_MOTION":"15.06403783","FILE":"3343255","BSTAR":"0.00023029000000","MEAN_MOTION_DOT":"0.00003151","ECCENTRICITY":"0.00016920","OBJECT_NAME":"STARLINK-1612"},{"TLE_LINE2":"2 46165  53.0527  61.6669 0000580  64.6908 295.4142 15.08231152 84968","GP_ID":"197765660","PERIAPSIS":"541.206","SITE":"AFETR","MEAN_MOTION":"15.08231152","FILE":"3343255","BSTAR":"0.00052741000000","ECCENTRICITY":"0.00005800","MEAN_MOTION_DOT":"0.00007979","OBJECT_NAME":"STARLINK-1613","OBJECT_ID":"2020-057BA","SEMIMAJOR_AXIS":"6919.742","ARG_OF_PERICENTER":"64.6908","TIME_SYSTEM":"UTC","ELEMENT_SET_NO":"999","RA_OF_ASC_NODE":"61.6669","NORAD_CAT_ID":"46165","EPOCH":"2022-03-03T16:36:59.262912","CENTER_NAME":"EARTH","PERIOD":"95.476","MEAN_MOTION_DDOT":"0.0000000000000","INCLINATION":"53.0527","MEAN_ELEMENT_THEORY":"SGP4","REV_AT_EPOCH":"8496","MEAN_ANOMALY":"295.4142","TLE_LINE1":"1 46165U 20057BA  22062.69235258  .00007979  00000-0  52741-3 0  9992","LAUNCH_DATE":"2020-08-18","DECAY_DATE":null,"COUNTRY_CODE":"US","REF_FRAME":"TEME","APOAPSIS":"542.008","OBJECT_TYPE":"PAYLOAD","RCS_SIZE":"LARGE","EPHEMERIS_TYPE":"0","CLASSIFICATION_TYPE":"U"},{"TLE_LINE2":"2 46166  53.0551  63.8886 0001589  66.6282 293.4874 15.06398655 85565","GP_ID":"197736984","SITE":"AFETR","PERIAPSIS":"546.117","MEAN_MOTION":"15.06398655","FILE":"3342749","BSTAR":"0.00006616600000","ECCENTRICITY":"0.00015890","MEAN_MOTION_DOT":"0.00000704","OBJECT_NAME":"STARLINK-1615","OBJECT_ID":"2020-057BB","ARG_OF_PERICENTER":"66.6282","SEMIMAJOR_AXIS":"6925.353","TIME_SYSTEM":"UTC","ELEMENT_SET_NO":"999","RA_OF_ASC_NODE":"63.8886","NORAD_CAT_ID":"46166","EPOCH":"2022-03-03T07:41:34.205856","CENTER_NAME":"EARTH","PERIOD":"95.592","MEAN_MOTION_DDOT":"0.0000000000000","INCLINATION":"53.0551","REV_AT_EPOCH":"8556","MEAN_ELEMENT_THEORY":"SGP4","MEAN_ANOMALY":"293.4874","DECAY_DATE":null,"TLE_LINE1":"1 46166U 20057BB  22062.32053479  .00000704  00000-0  66166-4 0  9992","LAUNCH_DATE":"2020-08-18","COUNTRY_CODE":"US","REF_FRAME":"TEME","APOAPSIS":"548.318","OBJECT_TYPE":"PAYLOAD","RCS_SIZE":"LARGE","EPHEMERIS_TYPE":"0","CLASSIFICATION_TYPE":"U"},{"MEAN_MOTION":"15.06411567","TLE_LINE2":"2 46167  53.0557  62.0528 0001766  55.5666 304.5490 15.06411567 84965","GP_ID":"197766662","PERIAPSIS":"545.955","SITE":"AFETR","MEAN_MOTION_DOT":"0.00000862","ECCENTRICITY":"0.00017660","OBJECT_NAME":"STARLINK-1626","BSTAR":"0.00007672700000","FILE":"3343255","OBJECT_ID":"2020-057BC","SEMIMAJOR_AXIS":"6925.313","ARG_OF_PERICENTER":"55.5666","ELEMENT_SET_NO":"999","RA_OF_ASC_NODE":"62.0528","TIME_SYSTEM":"UTC","CENTER_NAME":"EARTH","PERIOD":"95.591","EPOCH":"2022-03-03T17:36:01.324224","NORAD_CAT_ID":"46167","DECAY_DATE":null,"TLE_LINE1":"1 46167U 20057BC  22062.73334866  .00000862  00000-0  76727-4 0  9999","LAUNCH_DATE":"2020-08-18","REF_FRAME":"TEME","COUNTRY_CODE":"US","MEAN_ANOMALY":"304.5490","APOAPSIS":"548.401","INCLINATION":"53.0557","MEAN_MOTION_DDOT":"0.0000000000000","REV_AT_EPOCH":"8496","MEAN_ELEMENT_THEORY":"SGP4","EPHEMERIS_TYPE":"0","CLASSIFICATION_TYPE":"U","OBJECT_TYPE":"PAYLOAD","RCS_SIZE":"LARGE"},{"OBJECT_NAME":"STARLINK-1627","MEAN_MOTION_DOT":"0.00000707","ECCENTRICITY":"0.00017430","FILE":"3343255","BSTAR":"0.00006639000000","MEAN_MOTION":"15.06399610","SITE":"AFETR","PERIAPSIS":"546.008","GP_ID":"197764910","TLE_LINE2":"2 46168  53.0551  12.7639 0001743  62.4446 297.6720 15.06399610 85630","SEMIMAJOR_AXIS":"6925.350","ARG_OF_PERICENTER":"62.4446","OBJECT_ID":"2020-057BD","PERIOD":"95.592","CENTER_NAME":"EARTH","NORAD_CAT_ID":"46168","EPOCH":"2022-03-03T13:42:27.004032","RA_OF_ASC_NODE":"12.7639","ELEMENT_SET_NO":"999","TIME_SYSTEM":"UTC","CLASSIFICATION_TYPE":"U","EPHEMERIS_TYPE":"0","RCS_SIZE":"LARGE","OBJECT_TYPE":"PAYLOAD","APOAPSIS":"548.422","MEAN_ANOMALY":"297.6720","DECAY_DATE":null,"TLE_LINE1":"1 46168U 20057BD  22062.57114588  .00000707  00000-0  66390-4 0  9992","COUNTRY_CODE":"US","LAUNCH_DATE":"2020-08-18","REF_FRAME":"TEME","MEAN_ELEMENT_THEORY":"SGP4","REV_AT_EPOCH":"8563","MEAN_MOTION_DDOT":"0.0000000000000","INCLINATION":"53.0551"},{"SEMIMAJOR_AXIS":"6927.819","ARG_OF_PERICENTER":"63.0256","OBJECT_ID":"2020-057BE","PERIAPSIS":"548.517","SITE":"AFETR","GP_ID":"197765160","TLE_LINE2":"2 46169  53.0007  62.2043 0001685  63.0256 297.0904 15.05594270 84924","MEAN_MOTION":"15.05594270","FILE":"3343255","BSTAR":"0.00006870700000","OBJECT_NAME":"STARLINK-1628","MEAN_MOTION_DOT":"0.00000722","ECCENTRICITY":"0.00016850","MEAN_ELEMENT_THEORY":"SGP4","REV_AT_EPOCH":"8492","MEAN_MOTION_DDOT":"0.0000000000000","INCLINATION":"53.0007","APOAPSIS":"550.851","MEAN_ANOMALY":"297.0904","COUNTRY_CODE":"US","TLE_LINE1":"1 46169U 20057BE  22062.69400950  .00000722  00000-0  68707-4 0  9998","DECAY_DATE":null,"LAUNCH_DATE":"2020-08-18","REF_FRAME":"TEME","RCS_SIZE":"LARGE","OBJECT_TYPE":"PAYLOAD","CLASSIFICATION_TYPE":"U","EPHEMERIS_TYPE":"0","TIME_SYSTEM":"UTC","RA_OF_ASC_NODE":"62.2043","ELEMENT_SET_NO":"999","NORAD_CAT_ID":"46169","EPOCH":"2022-03-03T16:39:22.420800","PERIOD":"95.643","CENTER_NAME":"EARTH"},{"RA_OF_ASC_NODE":"42.4409","ELEMENT_SET_NO":"999","TIME_SYSTEM":"UTC","PERIOD":"95.592","CENTER_NAME":"EARTH","NORAD_CAT_ID":"46171","EPOCH":"2022-03-03T15:25:58.873728","APOAPSIS":"548.550","MEAN_ANOMALY":"305.6323","TLE_LINE1":"1 46171U 20057BG  22062.64304252  .00001527  00000-0  12137-3 0  9993","DECAY_DATE":null,"LAUNCH_DATE":"2020-08-18","REF_FRAME":"TEME","COUNTRY_CODE":"US","MEAN_ELEMENT_THEORY":"SGP4","REV_AT_EPOCH":"8648","MEAN_MOTION_DDOT":"0.0000000000000","INCLINATION":"53.0553","CLASSIFICATION_TYPE":"U","EPHEMERIS_TYPE":"0","OBJECT_TYPE":"PAYLOAD","RCS_SIZE":"LARGE","MEAN_MOTION":"15.06405796","PERIAPSIS":"545.842","SITE":"AFETR","GP_ID":"197766412","TLE_LINE2":"2 46171  53.0553  42.4409 0001955  54.4848 305.6323 15.06405796 86489","OBJECT_NAME":"STARLINK-1633","ECCENTRICITY":"0.00019550","MEAN_MOTION_DOT":"0.00001527","FILE":"3343255","BSTAR":"0.00012137000000","ARG_OF_PERICENTER":"54.4848","SEMIMAJOR_AXIS":"6925.331","OBJECT_ID":"2020-057BG"},{"BSTAR":"0.00002505800000","FILE":"3343255","OBJECT_NAME":"STARLINK-1635","MEAN_MOTION_DOT":"0.00000092","ECCENTRICITY":"0.00016900","SITE":"AFETR","PERIAPSIS":"546.034","TLE_LINE2":"2 46172  53.0560  42.3919 0001690  54.6348 305.4799 15.06402995 86489","GP_ID":"197766162","MEAN_MOTION":"15.06402995","SEMIMAJOR_AXIS":"6925.339","ARG_OF_PERICENTER":"54.6348","OBJECT_ID":"2020-057BH","EPOCH":"2022-03-03T15:47:13.130304","NORAD_CAT_ID":"46172","PERIOD":"95.592","CENTER_NAME":"EARTH","TIME_SYSTEM":"UTC","RA_OF_ASC_NODE":"42.3919","ELEMENT_SET_NO":"999","OBJECT_TYPE":"PAYLOAD","RCS_SIZE":"LARGE","CLASSIFICATION_TYPE":"U","EPHEMERIS_TYPE":"0","REV_AT_EPOCH":"8648","MEAN_ELEMENT_THEORY":"SGP4","INCLINATION":"53.0560","MEAN_MOTION_DDOT":"0.0000000000000","APOAPSIS":"548.375","TLE_LINE1":"1 46172U 20057BH  22062.65779086  .00000092  00000-0  25058-4 0  9999","DECAY_DATE":null,"REF_FRAME":"TEME","LAUNCH_DATE":"2020-08-18","COUNTRY_CODE":"US","MEAN_ANOMALY":"305.4799"},{"OBJECT_ID":"2020-057BJ","SEMIMAJOR_AXIS":"6925.344","ARG_OF_PERICENTER":"47.6052","GP_ID":"197765411","TLE_LINE2":"2 46173  53.0545  62.1789 0001687  47.6052 312.5079 15.06401335 84955","SITE":"AFETR","PERIAPSIS":"546.041","MEAN_MOTION":"15.06401335","BSTAR":"0.00004941000000","FILE":"3343255","ECCENTRICITY":"0.00016870","MEAN_MOTION_DOT":"0.00000454","OBJECT_NAME":"STARLINK-1640","INCLINATION":"53.0545","MEAN_MOTION_DDOT":"0.0000000000000","REV_AT_EPOCH":"8495","MEAN_ELEMENT_THEORY":"SGP4","DECAY_DATE":null,"TLE_LINE1":"1 46173U 20057BJ  22062.70386868  .00000454  00000-0  49410-4 0  9998","LAUNCH_DATE":"2020-08-18","REF_FRAME":"TEME","COUNTRY_CODE":"US","MEAN_ANOMALY":"312.5079","APOAPSIS":"548.378","OBJECT_TYPE":"PAYLOAD","RCS_SIZE":"LARGE","EPHEMERIS_TYPE":"0","CLASSIFICATION_TYPE":"U","TIME_SYSTEM":"UTC","ELEMENT_SET_NO":"999","RA_OF_ASC_NODE":"62.1789","EPOCH":"2022-03-03T16:53:34.253952","NORAD_CAT_ID":"46173","CENTER_NAME":"EARTH","PERIOD":"95.592"}];
